HULIANWANG DIGUI 13A    
1 66412U 25258A   25328.24528102 -.00000274  00000+0 -49223-4 0  9993
2 66412  50.0068 339.8010 0013813 294.8670  65.0807 14.24073743  2021
HULIANWANG DIGUI 13B    
1 66413U 25258B   25329.02495539 -.00000245  00000+0 -37617-4 0  9990
2 66413  50.0027 336.5829 0013340 294.6742  65.2781 14.23477029  2131
HULIANWANG DIGUI 13C    
1 66414U 25258C   25329.02194837 -.00000241  00000+0 -35695-4 0  9998
2 66414  50.0051 336.5794 0013629 294.0776  65.8710 14.23502243  2136
HULIANWANG DIGUI 13D    
1 66415U 25258D   25326.56065765 -.00000188  00000+0 -11421-4 0  9993
2 66415  50.0048 346.8921 0013056 293.5399  66.4143 14.25899858  1788
HULIANWANG DIGUI 13E    
1 66416U 25258E   25329.02004130 -.00000234  00000+0 -32634-4 0  9998
2 66416  50.0051 336.5703 0012780 302.2952  57.6722 14.23463452  2133
HULIANWANG DIGUI 13F    
1 66417U 25258F   25328.03589257 -.00000248  00000+0 -38845-4 0  9992
2 66417  50.0012 340.6960 0014180 302.1508  57.8029 14.23484274  1994
HULIANWANG DIGUI 13G    
1 66418U 25258G   25328.24242631 -.00000212  00000+0 -22945-4 0  9993
2 66418  50.0038 339.7789 0012103 294.9809  64.9846 14.23812994  2021
HULIANWANG DIGUI 13H    
1 66419U 25258H   25328.31124417 -.00000199  00000+0 -17483-4 0  9998
2 66419  50.0021 339.4698 0011850 292.9000  67.0662 14.23625091  2030
HULIANWANG DIGUI 13J    
1 66420U 25258J   25326.34657421 -.00000172  00000+0 -47791-5 0  9994
2 66420  50.0028 347.7517 0010939 293.8228  66.1539 14.26346428  1747
CZ-12 R/B               
1 66421U 25258K   25329.05244204 -.00000080  00000+0  26673-4 0  9999
2 66421  49.9958 334.6979 0064637 185.8760 174.1409 14.42312349  2165
STARLINK-35617          
1 66422U 25259A   25328.83337963 -.00005265  00000+0 -31154-4 0  9992
2 66422  42.9994 153.0400 0001564 278.2928 310.5087 15.75062781  3409
STARLINK-35618          
1 66423U 25259B   25328.83337963 -.00066294  00000+0 -43095-3 0  9998
2 66423  43.0028 153.0348 0001603 272.7043 318.0138 15.75086606  3404
